IRIDIUM 119             
1 42959U 17061E   25117.93424478  .00000019  00000+0 -39840-6 0  9991
2 42959  86.4032 198.7556 0002082  95.7518 264.3915 14.34217684395290
IRIDIUM 132             
1 42961U 17061G   25117.61077207  .00000031  00000+0  39645-5 0  9998
2 42961  86.4032 198.8919 0002182  99.8135 260.3308 14.34217905395252
IRIDIUM 136             
1 42962U 17061H   25117.64248477 -.00000004  00000+0 -84079-5 0  9994
2 42962  86.4036 198.8833 0001883  96.9656 263.1754 14.34217670395272
IRIDIUM 139             
1 42963U 17061J   25117.92790222 -.00000010  00000+0 -10581-4 0  9999
2 42963  86.4039 198.8195 0002020 102.5863 257.5559 14.34217525395320
IRIDIUM 125             
1 42964U 17061K   25117.77567866  .00000106  00000+0  30800-4 0  9999
2 42964  86.4034 198.9363 0001619  97.1358 263.0022 14.34217987395313
IRIDIUM 135             
1 43070U 17083A   25117.74981350  .00000269  00000+0  89067-4 0  9996
2 43070  86.3951 135.7036 0002542  90.3472 269.8015 14.34217405384604
IRIDIUM 138             
1 43071U 17083B   25117.77517491 -.00000012  00000+0 -11422-4 0  9999
2 43071  86.3940 135.3702 0001924  78.9352 281.2060 14.34217342384597
